ONEWEB-0134             
1 47280U 20100Y   24099.39832239 -.00000368  00000+0 -10574-2 0  9994
2 47280  87.8974 149.8673 0001894 106.7327 253.4009 13.12444551159808
ONEWEB-0135             
1 47281U 20100Z   24099.36658013  .00000411  00000+0  11058-2 0  9993
2 47281  87.8983 149.8853 0002006 100.9752 259.1602 13.12440440159820
ONEWEB-0136             
1 47282U 20100AA  24099.38880334 -.00000234  00000+0 -68712-3 0  9994
2 47282  87.8982 149.8494 0002012 114.7547 245.3791 13.12442155159756
ONEWEB-0137             
1 47283U 20100AB  24099.42214445  .00000224  00000+0  58657-3 0  9998
2 47283  87.8976 149.8705 0002245 100.0681 260.0701 13.12445965159667
ONEWEB-0138             
1 47284U 20100AC  24099.40152111 -.00000348  00000+0 -10020-2 0  9998
2 47284  87.8978 149.8874 0002057 102.9271 257.2087 13.12441937159743
ONEWEB-0139             
1 47285U 20100AD  24099.37292213  .00000264  00000+0  69809-3 0  9998
2 47285  87.8984 149.8623 0002014 100.7970 259.3386 13.12440376159817
ONEWEB-0140             
1 47286U 20100AE  24099.39514398 -.00000336  00000+0 -97039-3 0  9990
2 47286  87.8975 149.8636 0002029 103.4798 256.6557 13.12440584159783
ONEWEB-0141             
1 47287U 20100AF  24099.56748834 -.00000078  00000+0 -25273-3 0  9998
2 47287  87.8977 149.8283 0002174  93.5833 266.5544 13.12443252159796
